NORAD_CAT_ID,OBJECT_NAME,OBJECT_TYPE,EPOCH,MEAN_MOTION,ECCENTRICITY,INCLINATION,RA_OF_ASC_NODE,ARG_OF_PERICENTER,MEAN_ANOMALY,BSTAR,MEAN_MOTION_DOT,MEAN_MOTION_DDOT,TLE_LINE0,TLE_LINE1,TLE_LINE2,SEMIMAJOR_AXIS,PERIOD,APOGEE,PERIGEE,DECAYED
53819.0,STARLINK-4738,PAYLOAD,2024-02-22 17:04:30,15.10478258,0.0001646,53.2183,52.9758,84.6968,275.4213,9.75e-05,1.331e-05,0.0,0 STARLINK-4738,1 53819U 22114B   24053.71146963  .00001331  00000-0  97500-4 0  9990,2 53819  53.2183  52.9758 0001646  84.6968 275.4213 15.10478258 79678,6912.877,95.334,535.88,533.605,0.0
53819.0,STARLINK-4738,PAYLOAD,2024-02-23 07:22:02,15.10485855,0.0001611,53.2176,50.2948,86.2103,273.9074,4.5421e-05,4.64e-06,0.0,0 STARLINK-4738,1 53819U 22114B   24054.30697897  .00000464  00000-0  45421-4 0  9994,2 53819  53.2176  50.2948 0001611  86.2103 273.9074 15.10485855 80304,6912.854,95.334,535.833,533.606,0.0
53819.0,STARLINK-4738,PAYLOAD,2024-02-23 16:53:44,15.10485649,0.0001646,53.2174,48.5103,88.254,271.8642,7.7185e-05,9.93e-06,0.0,0 STARLINK-4738,1 53819U 22114B   24054.70398705  .00000993  00000-0  77185-4 0  9993,2 53819  53.2174  48.5103 0001646  88.2540 271.8642 15.10485649 80365,6912.855,95.334,535.858,533.582,0.0
53819.0,STARLINK-4738,PAYLOAD,2024-02-24 04:00:43,15.10474071,0.0001651,53.2176,46.4268,88.6414,271.4768,8.3192e-05,1.092e-05,0.0,0 STARLINK-4738,1 53819U 22114B   24055.16717189  .00001092  00000-0  83192-4 0  9991,2 53819  53.2176  46.4268 0001651  88.6414 271.4768 15.10474071 79894,6912.89,95.334,535.897,533.614,0.0
53819.0,STARLINK-4738,PAYLOAD,2024-02-24 05:36:00,15.1047832,0.0001671,53.218,46.1273,86.9583,273.1601,9.6736e-05,1.318e-05,0.0,0 STARLINK-4738,1 53819U 22114B   24055.23333753  .00001318  00000-0  96736-4 0  9999,2 53819  53.2180  46.1273 0001671  86.9583 273.1601 15.10478320 80441,6912.877,95.334,535.897,533.587,0.0
53819.0,STARLINK-4738,PAYLOAD,2024-02-24 16:42:59,15.10475808,0.0001631,53.218,44.0428,88.5511,271.5669,8.2809e-05,1.086e-05,0.0,0 STARLINK-4738,1 53819U 22114B   24055.69651705  .00001086  00000-0  82809-4 0  9997,2 53819  53.2180  44.0428 0001631  88.5511 271.5669 15.10475808 80517,6912.885,95.334,535.877,533.622,0.0
53819.0,STARLINK-4738,PAYLOAD,2024-02-25 05:25:14,15.10483059,0.0001652,53.2184,41.6605,90.7736,269.3447,9.473e-06,-1.35e-06,0.0,0 STARLINK-4738,1 53819U 22114B   24056.22585909 -.00000135  00000-0  94730-5 0  9991,2 53819  53.2184  41.6605 0001652  90.7736 269.3447 15.10483059 80053,6912.863,95.334,535.87,533.586,0.0
53819.0,STARLINK-4738,PAYLOAD,2024-02-25 16:32:12,15.10484337,0.0001631,53.2182,39.5759,90.2748,269.8432,-8.5906e-06,-4.36e-06,0.0,0 STARLINK-4738,1 53819U 22114B   24056.68903457 -.00000436  00000-0 -85906-5 0  9993,2 53819  53.2182  39.5759 0001631  90.2748 269.8432 15.10484337 80668,6912.859,95.334,535.851,533.596,0.0
53819.0,STARLINK-4738,PAYLOAD,2024-02-26 05:14:28,15.10436985,0.0001876,53.2185,37.1922,93.1245,266.9963,0.00081136,0.00013225,0.0,0 STARLINK-4738,1 53819U 22114B   24057.21839062  .00013225  00000-0  81136-3 0  9990,2 53819  53.2185  37.1922 0001876  93.1245 266.9963 15.10436985 80205,6913.003,95.337,536.165,533.571,0.0
53819.0,STARLINK-4738,PAYLOAD,2024-02-26 22:42:34,15.10474165,0.0001433,53.2178,33.9163,88.5616,271.5541,6.6502e-05,8.15e-06,0.0,0 STARLINK-4738,1 53819U 22114B   24057.94623455  .00000815  00000-0  66502-4 0  9999,2 53819  53.2178  33.9163 0001433  88.5616 271.5541 15.10474165 80854,6912.89,95.334,535.746,533.764,0.0
53819.0,STARLINK-4738,PAYLOAD,2024-02-27 03:28:25,15.10472605,0.0001465,53.218,33.0228,89.8834,270.2327,4.8251e-05,5.11e-06,0.0,0 STARLINK-4738,1 53819U 22114B   24058.14474099  .00000511  00000-0  48251-4 0  9994,2 53819  53.2180  33.0228 0001465  89.8834 270.2327 15.10472605 80340,6912.895,95.334,535.772,533.747,0.0
53819.0,STARLINK-4738,PAYLOAD,2024-02-27 08:14:16,15.10476036,0.0001445,53.2179,32.1281,90.1604,269.9555,4.0484e-05,3.81e-06,0.0,0 STARLINK-4738,1 53819U 22114B   24058.34324329  .00000381  00000-0  40484-4 0  9991,2 53819  53.2179  32.1281 0001445  90.1604 269.9555 15.10476036 80918,6912.884,95.334,535.748,533.75,0.0
53819.0,STARLINK-4738,PAYLOAD,2024-02-27 22:31:48,15.10474512,0.0001425,53.2181,29.4475,92.6944,267.4212,2.4806e-05,1.2e-06,0.0,0 STARLINK-4738,1 53819U 22114B   24058.93875869  .00000120  00000-0  24806-4 0  9997,2 53819  53.2181  29.4475 0001425  92.6944 267.4212 15.10474512 81008,6912.889,95.334,535.739,533.769,0.0
53819.0,STARLINK-4738,PAYLOAD,2024-02-28 04:52:55,15.10481268,0.0001386,53.2178,28.2575,94.0774,266.0377,9.1223e-05,1.227e-05,0.0,0 STARLINK-4738,1 53819U 22114B   24059.20342525  .00001227  00000-0  91223-4 0  9992,2 53819  53.2178  28.2575 0001386  94.0774 266.0377 15.10481268 80502,6912.868,95.334,535.691,533.775,0.0
53819.0,STARLINK-4738,PAYLOAD,2024-02-28 14:24:37,15.10473333,0.0001418,53.2175,26.4707,93.0078,267.1077,0.00012715,1.825e-05,0.0,0 STARLINK-4738,1 53819U 22114B   24059.60043845  .00001825  00000-0  12715-3 0  9991,2 53819  53.2175  26.4707 0001418  93.0078 267.1077 15.10473333 81108,6912.892,95.334,535.738,533.777,0.0
53819.0,STARLINK-4738,PAYLOAD,2024-02-28 22:21:03,15.10467116,0.0001839,53.2198,24.9855,116.5972,243.521,4.7742e-05,5.02e-06,0.0,0 STARLINK-4738,1 53819U 22114B   24059.93128580  .00000502  00000-0  47742-4 0  9997,2 53819  53.2198  24.9855 0001839 116.5972 243.5210 15.10467116 81155,6912.911,95.335,536.048,533.505,0.0
53819.0,STARLINK-4738,PAYLOAD,2024-02-29 14:13:52,15.10472142,0.000153,53.2189,22.005,97.6358,262.4809,4.429e-05,4.45e-06,0.0,0 STARLINK-4738,1 53819U 22114B   24060.59296634  .00000445  00000-0  44290-4 0  9998,2 53819  53.2189  22.0050 0001530  97.6358 262.4809 15.10472142 81256,6912.896,95.334,535.819,533.703,0.0
53819.0,STARLINK-4738,PAYLOAD,2024-03-01 07:41:58,15.10479411,0.0001408,53.2188,18.7292,99.0688,261.0465,7.1128e-05,8.92e-06,0.0,0 STARLINK-4738,1 53819U 22114B   24061.32081315  .00000892  00000-0  71128-4 0  9994,2 53819  53.2188  18.7292 0001408  99.0688 261.0465 15.10479411 81362,6912.874,95.334,535.712,533.766,0.0
53819.0,STARLINK-4738,PAYLOAD,2024-03-01 14:03:05,15.10480618,0.00015,53.2191,17.5375,87.737,272.3795,7.5746e-05,9.69e-06,0.0,0 STARLINK-4738,1 53819U 22114B   24061.58548524  .00000969  00000-0  75746-4 0  9997,2 53819  53.2191  17.5375 0001500  87.7370 272.3795 15.10480618 80866,6912.87,95.334,535.772,533.698,0.0
53819.0,STARLINK-4738,PAYLOAD,2024-03-02 04:20:37,15.10484393,0.0001557,53.2199,14.8573,89.9078,270.2094,0.00022095,3.388e-05,0.0,0 STARLINK-4738,1 53819U 22114B   24062.18099341  .00003388  00000-0  22095-3 0  9998,2 53819  53.2199  14.8573 0001557  89.9078 270.2094 15.10484393 81498,6912.859,95.334,535.8,533.647,0.0
53819.0,STARLINK-4738,PAYLOAD,2024-03-03 04:09:51,15.10485542,0.0001693,53.2204,10.3897,76.6943,283.4239,9.2727e-05,1.252e-05,0.0,0 STARLINK-4738,1 53819U 22114B   24063.17351819  .00001252  00000-0  92727-4 0  9997,2 53819  53.2204  10.3897 0001693  76.6943 283.4239 15.10485542 81102,6912.855,95.334,535.891,533.55,0.0
53819.0,STARLINK-4738,PAYLOAD,2024-03-03 20:02:41,15.10475925,0.000145,53.2194,7.4186,81.9652,278.1505,6.6868e-05,8.21e-06,0.0,0 STARLINK-4738,1 53819U 22114B   24063.83520535  .00000821  00000-0  66868-4 0  9991,2 53819  53.2194   7.4186 0001450  81.9652 278.1505 15.10475925 81746,6912.885,95.334,535.752,533.747,0.0
53819.0,STARLINK-4738,PAYLOAD,2024-03-04 05:34:22,15.10494847,0.0001752,53.2196,5.624,94.8878,265.2315,0.00015827,2.344e-05,0.0,0 STARLINK-4738,1 53819U 22114B   24064.23220102  .00002344  00000-0  15827-3 0  9993,2 53819  53.2196   5.6240 0001752  94.8878 265.2315 15.10494847 81264,6912.827,95.333,535.903,533.481,0.0
53819.0,STARLINK-4738,PAYLOAD,2024-03-04 13:30:47,15.10476919,0.0001428,53.2212,4.1342,83.5713,276.5442,2.4704e-05,1.19e-06,0.0,0 STARLINK-4738,1 53819U 22114B   24064.56305132  .00000119  00000-0  24704-4 0  9999,2 53819  53.2212   4.1342 0001428  83.5713 276.5442 15.10476919 81315,6912.882,95.334,535.734,533.759,0.0
53819.0,STARLINK-4738,PAYLOAD,2024-03-05 02:13:02,15.10480961,0.0001343,53.2187,1.7525,94.4872,265.6274,5.2439e-05,5.81e-06,0.0,0 STARLINK-4738,1 53819U 22114B   24065.09239258  .00000581  00000-0  52439-4 0  9992,2 53819  53.2187   1.7525 0001343  94.4872 265.6274 15.10480961 81937,6912.869,95.334,535.663,533.806,0.0
53819.0,STARLINK-4738,PAYLOAD,2024-03-05 19:41:09,15.10470198,0.0001085,53.2178,358.4772,95.2581,264.8536,0.00014984,2.202e-05,0.0,0 STARLINK-4738,1 53819U 22114B   24065.82024907  .00002202  00000-0  14984-3 0  9990,2 53819  53.2178 358.4772 0001085  95.2581 264.8536 15.10470198 81508,6912.902,95.335,535.517,534.017,0.0
53819.0,STARLINK-4738,PAYLOAD,2024-03-06 02:02:16,15.10480364,0.0001275,53.2175,357.2865,98.6427,261.471,3.4149e-05,2.76e-06,0.0,0 STARLINK-4738,1 53819U 22114B   24066.08491689  .00000276  00000-0  34149-4 0  9999,2 53819  53.2175 357.2865 0001275  98.6427 261.4710 15.10480364 81549,6912.871,95.334,535.617,533.855,0.0
53819.0,STARLINK-4738,PAYLOAD,2024-03-06 05:12:50,15.10482497,0.0001357,53.2182,356.6907,112.8083,247.3053,3.8328e-05,3.46e-06,0.0,0 STARLINK-4738,1 53819U 22114B   24066.21725128  .00000346  00000-0  38328-4 0  9993,2 53819  53.2182 356.6907 0001357 112.8083 247.3053 15.10482497 82100,6912.864,95.334,535.668,533.791,0.0
53819.0,STARLINK-4738,PAYLOAD,2024-03-07 03:27:06,15.10240454,0.0001348,53.2189,352.5253,88.7673,271.3474,-0.0017743,-0.00029518,0.0,0 STARLINK-4738,1 53819U 22114B   24067.14382639 -.00029518  00000-0 -17743-2 0  9992,2 53819  53.2189 352.5253 0001348  88.7673 271.3474 15.10240454 81706,6913.603,95.349,536.4,534.536,0.0
53819.0,STARLINK-4738,PAYLOAD,2024-03-07 11:23:45,15.10101562,0.0001207,53.2196,351.0376,78.7458,281.367,-0.0027565,-0.00045421,0.0,0 STARLINK-4738,1 53819U 22114B   24067.47483423 -.00045421  00000-0 -27565-2 0  9995,2 53819  53.2196 351.0376 0001207  78.7458 281.3670 15.10101562 82298,6914.027,95.358,536.727,535.057,0.0
